STARLINK-4716           
1 53706C 22107G   26108.82548611  .00037579  00000+0  23561-2 0  1086
2 53706  53.2170  64.0026 0001511  92.6215 213.2106 15.08825696    18
STARLINK-4667           
1 53707C 22107H   26108.79284722  .00031867  00000+0  19976-2 0  1082
2 53707  53.2163  49.1022 0001499  93.8719  77.0887 15.08835936    18
STARLINK-4694           
1 53708C 22107J   26108.79631944  .00032924  00000+0  20640-2 0  1080
2 53708  53.2166  48.9384 0001425  95.3200 174.6190 15.08832412    18
STARLINK-4685           
1 53709C 22107K   26108.82826389  .00033286  00000+0  20871-2 0  1082
2 53709  53.2153  68.6236 0001473  89.2479  64.3713 15.08824436    16
STARLINK-4627           
1 53711C 22107M   26108.75256944  .00048959  00000+0  30696-2 0  1080
2 53711  53.2150  69.0726 0001500  84.9266 317.2627 15.08819370    17
STARLINK-4683           
1 53712C 22107N   26108.83312500  .00034709  00000+0  21764-2 0  1085
2 53712  53.2164  68.4527 0001414  94.9303 165.2535 15.08821951    19
STARLINK-4686           
1 53715C 22107R   26108.77895833  .00042575  00000+0  26702-2 0  1083
2 53715  53.2156  73.8673 0001682  96.2195 121.9390 15.08810693    15
STARLINK-4699           
1 53716C 22107S   26108.82618056  .00037911  00000+0  23799-2 0  1081
2 53716  53.2159  73.6150 0001826  92.9070  41.9695 15.08778377    13
STARLINK-4695           
1 53718C 22107U   26108.79979167  .00049190  00000+0  30835-2 0  1083
2 53718  53.2162  74.3208 0001433  96.8271 308.9892 15.08826366    18
STARLINK-4644           
1 53719C 22107V   26108.81368056  .00021283  00000+0  13340-2 0  1081
2 53719  53.2171  43.6188 0001572 101.9689   9.8464 15.08843570    18
STARLINK-4642           
1 53720C 22107W   26108.82201389  .00042460  00000+0  26623-2 0  1087
2 53720  53.2152  73.7130 0001412  83.1772 348.9731 15.08821083    16
STARLINK-4707           
1 53721C 22107X   26108.75326389  .00046840  00000+0  29371-2 0  1087
2 53721  53.2151  74.1028 0001376  94.4720 283.9907 15.08816807    15
STARLINK-4700           
1 53722C 22107Y   26108.78937500  .00040457  00000+0  25367-2 0  1083
2 53722  53.2146  74.0142 0001447  86.9060  87.7634 15.08822204    13
STARLINK-4705           
1 53723C 22107Z   26108.78381944  .00047505  00000+0  29799-2 0  1083
2 53723  53.2161  73.7731 0001434 100.5151 184.1926 15.08802239    13
STARLINK-4663           
1 53724C 22107AA  26108.79423611  .00041662  00000+0  26125-2 0  1081
2 53724  53.2153  73.8798 0001475  92.1206 169.0448 15.08818397    14
STARLINK-4697           
1 53726C 22107AC  26108.75812500  .00047642  00000+0  29870-2 0  1082
2 53726  53.2148  74.1186 0001456  89.2876 295.5445 15.08821192    13
STARLINK-4701           
1 53727C 22107AD  26108.78590278  .00044118  00000+0  27667-2 0  1088
2 53727  53.2149  74.1125 0001292  99.4873  16.1348 15.08813528    19
STARLINK-4640           
1 53728C 22107AE  26108.77340278  .00047328  00000+0  29675-2 0  1088
2 53728  53.2148  74.1279 0001431  89.8554 337.9652 15.08819456    11
STARLINK-4651           
1 53729C 22107AF  26108.75187500  .00042829  00000+0  26860-2 0  1088
2 53729  53.2160  74.3821 0001445  89.2271 141.4781 15.08812448    11
STARLINK-4641           
1 53730C 22107AG  26108.75604167  .00047463  00000+0  29754-2 0  1087
2 53730  53.2154  74.2844 0001570  78.1508 215.2067 15.08825552    16
STARLINK-4636           
1 53731C 22107AH  26108.79979167  .00073927  00000+0  40689-2 0  1081
2 53731  53.2132  72.3804 0002573 313.8865  15.8352 15.13504534    18
STARLINK-4661           
1 53732C 22107AJ  26108.80048611  .00041420  00000+0  25970-2 0  1084
2 53732  53.2160  74.1337 0001141  70.7210  79.0082 15.08822347    15
STARLINK-4574           
1 53733C 22107AK  26108.80118056  .00046515  00000+0  29183-2 0  1086
2 53733  53.2162  74.2796 0001505  96.1434 342.5833 15.08796064    10
STARLINK-4616           
1 53734C 22107AL  26108.76159722  .00048414  00000+0  30363-2 0  1089
2 53734  53.2158  74.3000 0001527  86.9923 216.6163 15.08809154    11
STARLINK-4618           
1 53735C 22107AM  26108.81645833  .00049768  00000+0  31211-2 0  1085
2 53735  53.2158  83.7951 0001557  85.4567 281.4750 15.08810700    13
STARLINK-4652           
1 53736C 22107AN  26108.83451389  .00039611  00000+0  24838-2 0  1082
2 53736  53.2165  74.0896 0001537  89.4035 190.4026 15.08819794    12
STARLINK-4662           
1 53738C 22107AQ  26108.77201389  .00038749  00000+0  24257-2 0  1086
2 53738  53.2160  83.9564 0001659  78.0112  67.3419 15.08880803    12
STARLINK-4607           
1 53740C 22107AS  26108.79840278  .00042769  00000+0  26820-2 0  1082
2 53740  53.2155  83.9554 0001424  93.4746 135.1400 15.08815776    13
STARLINK-4637           
1 53742C 22107AU  26108.77895833  .00041548  00000+0  26048-2 0  1085
2 53742  53.2153  84.0820 0001528  84.8054  18.1707 15.08826409    17
STARLINK-4645           
1 53743C 22107AV  26108.78659722  .00044374  00000+0  27827-2 0  1088
2 53743  53.2148  84.2056 0001485  84.2849 340.1684 15.08814709    15
STARLINK-4670           
1 53744C 22107AW  26108.80048611  .00049662  00000+0  31141-2 0  1080
2 53744  53.2154  83.6759 0001174  82.8622 297.3743 15.08814893    17
STARLINK-4656           
1 53745C 22107AX  26108.78381944  .00045721  00000+0  28673-2 0  1085
2 53745  53.2142  84.2568 0001060  64.5749 324.7444 15.08812113    17
STARLINK-4589           
1 53746C 22107AY  26108.79006944  .00042020  00000+0  26351-2 0  1081
2 53746  53.2144  84.1501 0001311  87.8106  15.5497 15.08815631    11
STARLINK-4612           
1 53750C 22107BC  26108.83451389  .00042165  00000+0  26440-2 0  1087
2 53750  53.2144  84.1079 0001607  82.3753 182.4105 15.08818189    13
STARLINK-4718           
1 53773C 22111A   26108.76923611  .00014930  00000+0  93606-3 0  1089
2 53773  53.2147 104.1174 0000965  83.5762  56.5920 15.08838188    16
STARLINK-4719           
1 53774C 22111B   26108.77826389  .00020398  00000+0  12788-2 0  1081
2 53774  53.2146 104.0383 0001468  71.9842 137.2998 15.08835546    13
STARLINK-4722           
1 53775C 22111C   26108.75951389  .00026850  00000+0  16839-2 0  1089
2 53775  53.2153  94.4726 0001372  86.5707 215.6006 15.08820879    15
STARLINK-4664           
1 53777C 22111E   26108.79909722  .00038552  00000+0  24172-2 0  1080
2 53777  53.2150  94.2154 0001335  80.5687 116.7434 15.08824175    16
STARLINK-4709           
1 53778C 22111F   26108.81576389  .00038802  00000+0  24327-2 0  1083
2 53778  53.2150  98.7133 0001350  81.7886  58.8296 15.08826060    11
STARLINK-4706           
1 53779C 22111G   26108.74076389  .00015409  00000+0  96634-3 0  1080
2 53779  53.2150  94.4391 0001381  89.6740 170.5549 15.08828367    16
STARLINK-4678           
1 53780C 22111H   26108.75534722  .00024640  00000+0  15450-2 0  1086
2 53780  53.2154  94.4511 0001320  80.1134 219.3702 15.08828787    11
STARLINK-4462           
1 53781C 22111J   26108.79145833  .00037707  00000+0  23649-2 0  1089
2 53781  53.2143  94.0936 0001314  84.6771 151.1494 15.08813853    15
STARLINK-4679           
1 53782C 22111K   26108.76993056  .00557580  00000+0  12388-1 0  1088
2 53782  53.2182  89.8951 0001098  76.6532  94.9019 15.42827906    12
STARLINK-4536           
1 53783C 22111L   26108.76020833  .00024084  00000+0  15102-2 0  1089
2 53783  53.2145  94.1533 0001232  90.4546  15.5726 15.08826310    10
STARLINK-4687           
1 53784C 22111M   26108.82201389  .00048092  00000+0  30158-2 0  1087
2 53784  53.2143  93.9949 0001407  90.4969 291.4655 15.08813732    10
STARLINK-4743           
1 53787C 22111Q   26108.80465278  .00044057  00000+0  27625-2 0  1089
2 53787  53.2144  93.8744 0001568  92.4378 295.2933 15.08819196    11
STARLINK-4666           
1 53789C 22111S   26108.77687500  .00035578  00000+0  22315-2 0  1080
2 53789  53.2148  93.8829 0001363  93.0037 203.8643 15.08813719    11
STARLINK-4734           
1 53790C 22111T   26108.77756944  .00032231  00000+0  20212-2 0  1088
2 53790  53.2143  94.0359 0001241  79.1946 141.3302 15.08820388    16
STARLINK-4739           
1 53792C 22111V   26108.82409722  .00042378  00000+0  26585-2 0  1087
2 53792  53.2151  94.2981 0001312  89.3293 138.6247 15.08803010    17
STARLINK-4728           
1 53793C 22111W   26108.83034722  .00039691  00000+0  24892-2 0  1086
2 53793  53.2143  93.7181 0001235  79.6086 107.7021 15.08815031    14
STARLINK-4730           
1 53794C 22111X   26108.74423611  .00016702  00000+0  10474-2 0  1085
2 53794  53.2144  94.1543 0001321  89.9539 324.2397 15.08827080    15
STARLINK-4742           
1 53795C 22111Y   26108.78729167  .00040227  00000+0  25226-2 0  1085
2 53795  53.2149  93.7961 0001353  82.9817 290.5239 15.08816953    14
STARLINK-4723           
1 53797C 22111AA  26108.80743056  .00039509  00000+0  24772-2 0  1089
2 53797  53.2153  93.5874 0001384  78.9004 104.1130 15.08823138    12
STARLINK-4712           
1 53798C 22111AB  26108.82618056  .00044861  00000+0  28125-2 0  1086
2 53798  53.2153  93.5422 0001375  81.7178 183.1742 15.08824319    14
STARLINK-4710           
1 53799C 22111AC  26108.82340278  .00049422  00000+0  30990-2 0  1086
2 53799  53.2157  84.0222 0001378  73.1083 306.1836 15.08815239    17
STARLINK-4720           
1 53800C 22111AD  26108.77131944  .00071172  00000+0  10182-2 0  1089
2 53800  53.2100  47.0626 0001215  29.6020 288.7584 15.55560179    19
STARLINK-4715           
1 53801C 22111AE  26108.77895833  .00046065  00000+0  28886-2 0  1087
2 53801  53.2147  83.8986 0001680  92.7328 210.4140 15.08814620    17
STARLINK-4726           
1 53802C 22111AF  26108.83243056  .00039025  00000+0  24468-2 0  1089
2 53802  53.2155  83.7758 0001398  83.4954  90.1244 15.08825145    13
STARLINK-4727           
1 53803C 22111AG  26108.82548611  .00041379  00000+0  25941-2 0  1086
2 53803  53.2151  68.9861 0001491  92.3481 325.9802 15.08826074    19
